start=new Date('2022-12-29T00:00:00.000Z').valueOf();
sats=[{"PERIOD":"95.437","NORAD_CAT_ID":"53610","RCS_SIZE":"LARGE","OBJECT_TYPE":"PAYLOAD","OBJECT_NAME":"STARLINK-4610","REV_AT_EPOCH":"1943","DECAY_DATE":null,"MEAN_ELEMENT_THEORY":"SGP4","MEAN_MOTION":"15.08843736","INCLINATION":"53.2172","MEAN_MOTION_DDOT":"0.0000000000000","ELEMENT_SET_NO":"999","OBJECT_ID":"2022-104Y","REF_FRAME":"TEME","FILE":"3725038","SEMIMAJOR_AXIS":"6917.869","LAUNCH_DATE":"2022-08-28","ECCENTRICITY":"0.00016890","MEAN_MOTION_DOT":"0.00000774","TLE_LINE2":"2 53610  53.2172  73.7612 0001689  51.1100 309.0042 15.08843736 19435","TIME_SYSTEM":"UTC","ARG_OF_PERICENTER":"51.1100","BSTAR":"0.00006672600000","CLASSIFICATION_TYPE":"U","RA_OF_ASC_NODE":"73.7612","CENTER_NAME":"EARTH","EPHEMERIS_TYPE":"0","COUNTRY_CODE":"US","SITE":"AFETR","APOAPSIS":"540.902","MEAN_ANOMALY":"309.0042","PERIAPSIS":"538.566","EPOCH":"2022-12-28T13:00:38.517408","TLE_LINE1":"1 53610U 22104Y   22362.54211247  .00000774  00000-0  66726-4 0  9994","GP_ID":"221698636"},{"BSTAR":"0.00026481000000","CLASSIFICATION_TYPE":"U","ARG_OF_PERICENTER":"53.3141","RA_OF_ASC_NODE":"75.3130","MEAN_MOTION_DOT":"0.00003928","TLE_LINE2":"2 53611  53.2186  75.3130 0001779  53.3141 306.8015 15.08830808 18815","TIME_SYSTEM":"UTC","TLE_LINE1":"1 53611U 22104Z   22362.22101165  .00003928  00000-0  26481-3 0  9994","PERIAPSIS":"538.543","EPOCH":"2022-12-28T05:18:15.406560","GP_ID":"221633285","EPHEMERIS_TYPE":"0","COUNTRY_CODE":"US","SITE":"AFETR","CENTER_NAME":"EARTH","APOAPSIS":"541.004","MEAN_ANOMALY":"306.8015","RCS_SIZE":"LARGE","OBJECT_NAME":"STARLINK-4650","OBJECT_TYPE":"PAYLOAD","PERIOD":"95.438","NORAD_CAT_ID":"53611","OBJECT_ID":"2022-104Z","ELEMENT_SET_NO":"999","LAUNCH_DATE":"2022-08-28","SEMIMAJOR_AXIS":"6917.908","ECCENTRICITY":"0.00017790","REF_FRAME":"TEME","FILE":"3724477","MEAN_MOTION":"15.08830808","REV_AT_EPOCH":"1881","DECAY_DATE":null,"MEAN_ELEMENT_THEORY":"SGP4","INCLINATION":"53.2186","MEAN_MOTION_DDOT":"0.0000000000000"},{"OBJECT_ID":"2022-104AA","ELEMENT_SET_NO":"999","SEMIMAJOR_AXIS":"6917.863","LAUNCH_DATE":"2022-08-28","ECCENTRICITY":"0.00029900","REF_FRAME":"TEME","FILE":"3725038","MEAN_MOTION":"15.08845581","REV_AT_EPOCH":"1944","MEAN_ELEMENT_THEORY":"SGP4","DECAY_DATE":null,"INCLINATION":"53.2182","MEAN_MOTION_DDOT":"0.0000000000000","RCS_SIZE":"LARGE","OBJECT_NAME":"STARLINK-4658","OBJECT_TYPE":"PAYLOAD","PERIOD":"95.437","NORAD_CAT_ID":"53612","TLE_LINE1":"1 53612U 22104AA  22362.60371314 -.00000183  00000-0  66209-5 0  9997","PERIAPSIS":"537.660","EPOCH":"2022-12-28T14:29:20.815296","GP_ID":"221697816","EPHEMERIS_TYPE":"0","SITE":"AFETR","COUNTRY_CODE":"US","CENTER_NAME":"EARTH","APOAPSIS":"541.797","MEAN_ANOMALY":"326.6071","BSTAR":"0.00000662090000","CLASSIFICATION_TYPE":"U","ARG_OF_PERICENTER":"33.5110","RA_OF_ASC_NODE":"73.4396","MEAN_MOTION_DOT":"-0.00000183","TLE_LINE2":"2 53612  53.2182  73.4396 0002990  33.5110 326.6071 15.08845581 19443","TIME_SYSTEM":"UTC"},{"TLE_LINE2":"2 53613  53.2202  73.7818 0001813  41.2691 318.8438 15.08838833 19433","TIME_SYSTEM":"UTC","MEAN_MOTION_DOT":"-0.00000973","RA_OF_ASC_NODE":"73.7818","BSTAR":"-0.00004305900000","CLASSIFICATION_TYPE":"U","ARG_OF_PERICENTER":"41.2691","APOAPSIS":"541.003","MEAN_ANOMALY":"318.8438","EPHEMERIS_TYPE":"0","SITE":"AFETR","COUNTRY_CODE":"US","CENTER_NAME":"EARTH","GP_ID":"221698025","TLE_LINE1":"1 53613U 22104AB  22362.54484448 -.00000973  00000-0 -43059-4 0  9999","PERIAPSIS":"538.495","EPOCH":"2022-12-28T13:04:34.563072","NORAD_CAT_ID":"53613","PERIOD":"95.438","OBJECT_NAME":"STARLINK-4655","OBJECT_TYPE":"PAYLOAD","RCS_SIZE":"LARGE","INCLINATION":"53.2202","MEAN_MOTION_DDOT":"0.0000000000000","MEAN_MOTION":"15.08838833","REV_AT_EPOCH":"1943","DECAY_DATE":null,"MEAN_ELEMENT_THEORY":"SGP4","SEMIMAJOR_AXIS":"6917.884","LAUNCH_DATE":"2022-08-28","ECCENTRICITY":"0.00018130","REF_FRAME":"TEME","FILE":"3725038","OBJECT_ID":"2022-104AB","ELEMENT_SET_NO":"999"},{"NORAD_CAT_ID":"53616","PERIOD":"95.437","OBJECT_NAME":"STARLINK-4605","OBJECT_TYPE":"PAYLOAD","RCS_SIZE":"LARGE","MEAN_MOTION_DDOT":"0.0000000000000","INCLINATION":"53.2177","MEAN_MOTION":"15.08849520","MEAN_ELEMENT_THEORY":"SGP4","DECAY_DATE":null,"REV_AT_EPOCH":"1895","ECCENTRICITY":"0.00019720","SEMIMAJOR_AXIS":"6917.851","LAUNCH_DATE":"2022-08-28","FILE":"3724488","REF_FRAME":"TEME","OBJECT_ID":"2022-104AE","ELEMENT_SET_NO":"999","TIME_SYSTEM":"UTC","TLE_LINE2":"2 53616  53.2177  65.1152 0001972  43.3041 316.8106 15.08849520 18952","MEAN_MOTION_DOT":"0.00002373","RA_OF_ASC_NODE":"65.1152","CLASSIFICATION_TYPE":"U","BSTAR":"0.00016710000000","ARG_OF_PERICENTER":"43.3041","MEAN_ANOMALY":"316.8106","APOAPSIS":"541.080","SITE":"AFETR","COUNTRY_CODE":"US","EPHEMERIS_TYPE":"0","CENTER_NAME":"EARTH","GP_ID":"221633427","TLE_LINE1":"1 53616U 22104AE  22362.21549295  .00002373  00000-0  16710-3 0  9995","PERIAPSIS":"538.352","EPOCH":"2022-12-28T05:10:18.590880"},{"PERIOD":"95.437","NORAD_CAT_ID":"53617","RCS_SIZE":"LARGE","OBJECT_NAME":"STARLINK-4601","OBJECT_TYPE":"PAYLOAD","MEAN_MOTION":"15.08847960","REV_AT_EPOCH":"1871","MEAN_ELEMENT_THEORY":"SGP4","DECAY_DATE":null,"MEAN_MOTION_DDOT":"0.0000000000000","INCLINATION":"53.2180","OBJECT_ID":"2022-104AF","ELEMENT_SET_NO":"999","LAUNCH_DATE":"2022-08-28","SEMIMAJOR_AXIS":"6917.856","ECCENTRICITY":"0.00020990","REF_FRAME":"TEME","FILE":"3724477","MEAN_MOTION_DOT":"0.00003135","TLE_LINE2":"2 53617  53.2180  78.1763 0002099  36.3133 323.8002 15.08847960 18717","TIME_SYSTEM":"UTC","CLASSIFICATION_TYPE":"U","BSTAR":"0.00021491000000","ARG_OF_PERICENTER":"36.3133","RA_OF_ASC_NODE":"78.1763","EPHEMERIS_TYPE":"0","SITE":"AFETR","COUNTRY_CODE":"US","CENTER_NAME":"EARTH","APOAPSIS":"541.173","MEAN_ANOMALY":"323.8002","TLE_LINE1":"1 53617U 22104AF  22361.54018391  .00003135  00000-0  21491-3 0  9998","EPOCH":"2022-12-27T12:57:51.889824","PERIAPSIS":"538.269","GP_ID":"221633145"},{"ELEMENT_SET_NO":"999","OBJECT_ID":"2022-104AG","REF_FRAME":"TEME","FILE":"3725038","SEMIMAJOR_AXIS":"6917.869","LAUNCH_DATE":"2022-08-28","ECCENTRICITY":"0.00025020","REV_AT_EPOCH":"1886","MEAN_ELEMENT_THEORY":"SGP4","DECAY_DATE":null,"MEAN_MOTION":"15.08843861","INCLINATION":"53.2188","MEAN_MOTION_DDOT":"0.0000000000000","RCS_SIZE":"LARGE","OBJECT_TYPE":"PAYLOAD","OBJECT_NAME":"STARLINK-4604","PERIOD":"95.437","NORAD_CAT_ID":"53618","PERIAPSIS":"538.003","EPOCH":"2022-12-28T14:08:07.681056","TLE_LINE1":"1 53618U 22104AG  22362.58897779 -.00000525  00000-0 -14868-4 0  9992","GP_ID":"221697383","CENTER_NAME":"EARTH","EPHEMERIS_TYPE":"0","COUNTRY_CODE":"US","SITE":"AFETR","APOAPSIS":"541.464","MEAN_ANOMALY":"327.4252","ARG_OF_PERICENTER":"32.6894","CLASSIFICATION_TYPE":"U","BSTAR":"-0.00001486800000","RA_OF_ASC_NODE":"73.3504","MEAN_MOTION_DOT":"-0.00000525","TLE_LINE2":"2 53618  53.2188  73.3504 0002502  32.6894 327.4252 15.08843861 18867","TIME_SYSTEM":"UTC"},{"RCS_SIZE":"LARGE","OBJECT_NAME":"STARLINK-4609","OBJECT_TYPE":"PAYLOAD","PERIOD":"95.436","NORAD_CAT_ID":"53619","OBJECT_ID":"2022-104AH","ELEMENT_SET_NO":"999","LAUNCH_DATE":"2022-08-28","SEMIMAJOR_AXIS":"6917.794","ECCENTRICITY":"0.00023320","REF_FRAME":"TEME","FILE":"3724966","MEAN_MOTION":"15.08868125","REV_AT_EPOCH":"1881","MEAN_ELEMENT_THEORY":"SGP4","DECAY_DATE":null,"MEAN_MOTION_DDOT":"0.0000000000000","INCLINATION":"53.2177","CLASSIFICATION_TYPE":"U","BSTAR":"0.00048390000000","ARG_OF_PERICENTER":"37.9753","RA_OF_ASC_NODE":"75.1749","MEAN_MOTION_DOT":"0.00007427","TLE_LINE2":"2 53619  53.2177  75.1749 0002332  37.9753 322.1403 15.08868125 18815","TIME_SYSTEM":"UTC","TLE_LINE1":"1 53619U 22104AH  22362.19890592  .00007427  00000-0  48390-3 0  9998","PERIAPSIS":"538.046","EPOCH":"2022-12-28T04:46:25.471488","GP_ID":"221670855","EPHEMERIS_TYPE":"0","COUNTRY_CODE":"US","SITE":"AFETR","CENTER_NAME":"EARTH","APOAPSIS":"541.273","MEAN_ANOMALY":"322.1403"},{"APOAPSIS":"541.217","MEAN_ANOMALY":"330.9934","EPHEMERIS_TYPE":"0","COUNTRY_CODE":"US","SITE":"AFETR","CENTER_NAME":"EARTH","GP_ID":"221670852","TLE_LINE1":"1 53620U 22104AJ  22361.52175785  .00002860  00000-0  19765-3 0  9996","PERIAPSIS":"538.213","EPOCH":"2022-12-27T12:31:19.878240","TLE_LINE2":"2 53620  53.2196  78.0622 0002171  29.1179 330.9934 15.08850045 18713","TIME_SYSTEM":"UTC","MEAN_MOTION_DOT":"0.00002860","RA_OF_ASC_NODE":"78.0622","BSTAR":"0.00019765000000","CLASSIFICATION_TYPE":"U","ARG_OF_PERICENTER":"29.1179","INCLINATION":"53.2196","MEAN_MOTION_DDOT":"0.0000000000000","MEAN_MOTION":"15.08850045","REV_AT_EPOCH":"1871","DECAY_DATE":null,"MEAN_ELEMENT_THEORY":"SGP4","SEMIMAJOR_AXIS":"6917.850","LAUNCH_DATE":"2022-08-28","ECCENTRICITY":"0.00021710","REF_FRAME":"TEME","FILE":"3724966","OBJECT_ID":"2022-104AJ","ELEMENT_SET_NO":"999","NORAD_CAT_ID":"53620","PERIOD":"95.437","OBJECT_NAME":"STARLINK-4615","OBJECT_TYPE":"PAYLOAD","RCS_SIZE":"LARGE"},{"MEAN_MOTION":"15.08846316","MEAN_ELEMENT_THEORY":"SGP4","DECAY_DATE":null,"REV_AT_EPOCH":"1944","INCLINATION":"53.2196","MEAN_MOTION_DDOT":"0.0000000000000","OBJECT_ID":"2022-104AK","ELEMENT_SET_NO":"999","ECCENTRICITY":"0.00023810","SEMIMAJOR_AXIS":"6917.861","LAUNCH_DATE":"2022-08-28","FILE":"3725038","REF_FRAME":"TEME","PERIOD":"95.437","NORAD_CAT_ID":"53621","RCS_SIZE":"LARGE","OBJECT_NAME":"STARLINK-4608","OBJECT_TYPE":"PAYLOAD","COUNTRY_CODE":"US","SITE":"AFETR","EPHEMERIS_TYPE":"0","CENTER_NAME":"EARTH","MEAN_ANOMALY":"324.3897","APOAPSIS":"541.373","TLE_LINE1":"1 53621U 22104AK  22362.59265912  .00000407  00000-0  43667-4 0  9991","EPOCH":"2022-12-28T14:13:25.747968","PERIAPSIS":"538.079","GP_ID":"221697174","MEAN_MOTION_DOT":"0.00000407","TIME_SYSTEM":"UTC","TLE_LINE2":"2 53621  53.2196  73.3692 0002381  35.7254 324.3897 15.08846316 19441","CLASSIFICATION_TYPE":"U","BSTAR":"0.00004366700000","ARG_OF_PERICENTER":"35.7254","RA_OF_ASC_NODE":"73.3692"}];
